STARLINK-35340          
1 66022U 25232T   25304.66668980 -.01915258  00000+0 -19651-1 0  9998
2 66022  53.1592 346.5344 0001278  60.6470 342.4127 15.67357884  2787
STARLINK-35394          
1 66023U 25232U   25304.66668980 -.01911288  00000+0 -19606-1 0  9998
2 66023  53.1592 346.5302 0001291  60.2397 344.7370 15.67355570  2786
STARLINK-35410          
1 66024U 25232V   25304.66668980 -.01912564  00000+0 -19621-1 0  9994
2 66024  53.1593 346.5222 0001305  58.3138 350.4972 15.67355723  2788
STARLINK-35280          
1 66025U 25232W   25304.66668980 -.01911731  00000+0 -19612-1 0  9990
2 66025  53.1591 346.5257 0001339  62.2258 344.6696 15.67354499  2720
STARLINK-34812          
1 66026U 25232X   25304.66668980 -.01911570  00000+0 -19610-1 0  9990
2 66026  53.1595 346.5187 0001222  50.9371 359.7900 15.67355838  2732
STARLINK-35341          
1 66027U 25232Y   25304.66668980 -.00090470  00000+0 -79413-3 0  9996
2 66027  53.1593 346.5141 0001070  52.0945   0.9040 15.68329241  2787
STARLINK-35339          
1 66028U 25232Z   25304.66668980 -.00080114  00000+0 -70187-3 0  9990
2 66028  53.1593 346.5102 0000847  54.7106   0.2015 15.68326082  2723
STARLINK-35399          
1 66029U 25232AA  25304.66668980  .00086432  00000+0  75498-3 0  9998
2 66029  53.1593 346.5066 0000540  39.3728  17.4690 15.68244909  2728
STARLINK-35431          
1 66030U 25232AB  25304.66668980 -.00093072  00000+0 -81743-3 0  9990
2 66030  53.1595 346.5017 0000894  59.6486 359.1020 15.68327935  2720
STARLINK-35326          
1 66031U 25232AC  25304.66668980 -.00082772  00000+0 -72555-3 0  9997
2 66031  53.1594 346.4985 0001029  58.2329   2.4301 15.68326086  2787
STARLINK-35311          
1 66032U 25232AD  25304.66668980 -.00091327  00000+0 -80176-3 0  9992
2 66032  53.1594 346.4939 0000947  57.9251   4.6571 15.68330114  2785
QIANFAN 18A             
1 66033U 25233A   25302.97236387  .00000770  00000+0  31714-3 0  9992
2 66033  88.9942  67.0695 0015802 169.1753 190.9784 14.25907183  1808
