CCSDS_OMM_VERS = 2.0
CREATION_DATE  = 
ORIGINATOR     = 

OBJECT_NAME    = STARLINK-35340
OBJECT_ID      = 2025-232T
CENTER_NAME    = EARTH
REF_FRAME      = TEME
TIME_SYSTEM    = UTC
MEAN_ELEMENT_THEORY = SGP/SGP4

EPOCH          = 2025-10-31T16:00:01.998720
MEAN_MOTION    = 15.67357884
ECCENTRICITY   = .0001278
INCLINATION    = 53.1592
RA_OF_ASC_NODE = 346.5344
ARG_OF_PERICENTER = 60.6470
MEAN_ANOMALY   = 342.4127

EPHEMERIS_TYPE = 0
CLASSIFICATION_TYPE = U
NORAD_CAT_ID   = 66022
ELEMENT_SET_NO = 999
REV_AT_EPOCH   = 278
BSTAR          = -.19651E-1
MEAN_MOTION_DOT = -.1915258E-1
MEAN_MOTION_DDOT = 0

CCSDS_OMM_VERS = 2.0
CREATION_DATE  = 
ORIGINATOR     = 

OBJECT_NAME    = STARLINK-35394
OBJECT_ID      = 2025-232U
CENTER_NAME    = EARTH
REF_FRAME      = TEME
TIME_SYSTEM    = UTC
MEAN_ELEMENT_THEORY = SGP/SGP4

EPOCH          = 2025-10-31T16:00:01.998720
MEAN_MOTION    = 15.67355570
ECCENTRICITY   = .0001291
INCLINATION    = 53.1592
RA_OF_ASC_NODE = 346.5302
ARG_OF_PERICENTER = 60.2397
MEAN_ANOMALY   = 344.7370

EPHEMERIS_TYPE = 0
CLASSIFICATION_TYPE = U
NORAD_CAT_ID   = 66023
ELEMENT_SET_NO = 999
REV_AT_EPOCH   = 278
BSTAR          = -.19606E-1
MEAN_MOTION_DOT = -.1911288E-1
MEAN_MOTION_DDOT = 0

CCSDS_OMM_VERS = 2.0
CREATION_DATE  = 
ORIGINATOR     = 

OBJECT_NAME    = STARLINK-35410
OBJECT_ID      = 2025-232V
CENTER_NAME    = EARTH
REF_FRAME      = TEME
TIME_SYSTEM    = UTC
MEAN_ELEMENT_THEORY = SGP/SGP4

EPOCH          = 2025-10-31T16:00:01.998720
MEAN_MOTION    = 15.67355723
ECCENTRICITY   = .0001305
INCLINATION    = 53.1593
RA_OF_ASC_NODE = 346.5222
ARG_OF_PERICENTER = 58.3138
MEAN_ANOMALY   = 350.4972

EPHEMERIS_TYPE = 0
CLASSIFICATION_TYPE = U
NORAD_CAT_ID   = 66024
ELEMENT_SET_NO = 999
REV_AT_EPOCH   = 278
BSTAR          = -.19621E-1
MEAN_MOTION_DOT = -.1912564E-1
MEAN_MOTION_DDOT = 0

CCSDS_OMM_VERS = 2.0
CREATION_DATE  = 
ORIGINATOR     = 

OBJECT_NAME    = STARLINK-35280
OBJECT_ID      = 2025-232W
CENTER_NAME    = EARTH
REF_FRAME      = TEME
TIME_SYSTEM    = UTC
MEAN_ELEMENT_THEORY = SGP/SGP4

EPOCH          = 2025-10-31T16:00:01.998720
MEAN_MOTION    = 15.67354499
ECCENTRICITY   = .0001339
INCLINATION    = 53.1591
RA_OF_ASC_NODE = 346.5257
ARG_OF_PERICENTER = 62.2258
MEAN_ANOMALY   = 344.6696

EPHEMERIS_TYPE = 0
CLASSIFICATION_TYPE = U
NORAD_CAT_ID   = 66025
ELEMENT_SET_NO = 999
REV_AT_EPOCH   = 272
BSTAR          = -.19612E-1
MEAN_MOTION_DOT = -.1911731E-1
MEAN_MOTION_DDOT = 0

CCSDS_OMM_VERS = 2.0
CREATION_DATE  = 
ORIGINATOR     = 

OBJECT_NAME    = STARLINK-34812
OBJECT_ID      = 2025-232X
CENTER_NAME    = EARTH
REF_FRAME      = TEME
TIME_SYSTEM    = UTC
MEAN_ELEMENT_THEORY = SGP/SGP4

EPOCH          = 2025-10-31T16:00:01.998720
MEAN_MOTION    = 15.67355838
ECCENTRICITY   = .0001222
INCLINATION    = 53.1595
RA_OF_ASC_NODE = 346.5187
ARG_OF_PERICENTER = 50.9371
MEAN_ANOMALY   = 359.7900

EPHEMERIS_TYPE = 0
CLASSIFICATION_TYPE = U
NORAD_CAT_ID   = 66026
ELEMENT_SET_NO = 999
REV_AT_EPOCH   = 273
BSTAR          = -.1961E-1
MEAN_MOTION_DOT = -.191157E-1
MEAN_MOTION_DDOT = 0

CCSDS_OMM_VERS = 2.0
CREATION_DATE  = 
ORIGINATOR     = 

OBJECT_NAME    = STARLINK-35341
OBJECT_ID      = 2025-232Y
CENTER_NAME    = EARTH
REF_FRAME      = TEME
TIME_SYSTEM    = UTC
MEAN_ELEMENT_THEORY = SGP/SGP4

EPOCH          = 2025-10-31T16:00:01.998720
MEAN_MOTION    = 15.68329241
ECCENTRICITY   = .000107
INCLINATION    = 53.1593
RA_OF_ASC_NODE = 346.5141
ARG_OF_PERICENTER = 52.0945
MEAN_ANOMALY   = 0.9040

EPHEMERIS_TYPE = 0
CLASSIFICATION_TYPE = U
NORAD_CAT_ID   = 66027
ELEMENT_SET_NO = 999
REV_AT_EPOCH   = 278
BSTAR          = -.79413E-3
MEAN_MOTION_DOT = -.9047E-3
MEAN_MOTION_DDOT = 0

CCSDS_OMM_VERS = 2.0
CREATION_DATE  = 
ORIGINATOR     = 

OBJECT_NAME    = STARLINK-35339
OBJECT_ID      = 2025-232Z
CENTER_NAME    = EARTH
REF_FRAME      = TEME
TIME_SYSTEM    = UTC
MEAN_ELEMENT_THEORY = SGP/SGP4

EPOCH          = 2025-10-31T16:00:01.998720
MEAN_MOTION    = 15.68326082
ECCENTRICITY   = .0000847
INCLINATION    = 53.1593
RA_OF_ASC_NODE = 346.5102
ARG_OF_PERICENTER = 54.7106
MEAN_ANOMALY   = 0.2015

EPHEMERIS_TYPE = 0
CLASSIFICATION_TYPE = U
NORAD_CAT_ID   = 66028
ELEMENT_SET_NO = 999
REV_AT_EPOCH   = 272
BSTAR          = -.70187E-3
MEAN_MOTION_DOT = -.80114E-3
MEAN_MOTION_DDOT = 0

CCSDS_OMM_VERS = 2.0
CREATION_DATE  = 
ORIGINATOR     = 

OBJECT_NAME    = STARLINK-35399
OBJECT_ID      = 2025-232AA
CENTER_NAME    = EARTH
REF_FRAME      = TEME
TIME_SYSTEM    = UTC
MEAN_ELEMENT_THEORY = SGP/SGP4

EPOCH          = 2025-10-31T16:00:01.998720
MEAN_MOTION    = 15.68244909
ECCENTRICITY   = .000054
INCLINATION    = 53.1593
RA_OF_ASC_NODE = 346.5066
ARG_OF_PERICENTER = 39.3728
MEAN_ANOMALY   = 17.4690

EPHEMERIS_TYPE = 0
CLASSIFICATION_TYPE = U
NORAD_CAT_ID   = 66029
ELEMENT_SET_NO = 999
REV_AT_EPOCH   = 272
BSTAR          = .75498E-3
MEAN_MOTION_DOT = .86432E-3
MEAN_MOTION_DDOT = 0

CCSDS_OMM_VERS = 2.0
CREATION_DATE  = 
ORIGINATOR     = 

OBJECT_NAME    = STARLINK-35431
OBJECT_ID      = 2025-232AB
CENTER_NAME    = EARTH
REF_FRAME      = TEME
TIME_SYSTEM    = UTC
MEAN_ELEMENT_THEORY = SGP/SGP4

EPOCH          = 2025-10-31T16:00:01.998720
MEAN_MOTION    = 15.68327935
ECCENTRICITY   = .0000894
INCLINATION    = 53.1595
RA_OF_ASC_NODE = 346.5017
ARG_OF_PERICENTER = 59.6486
MEAN_ANOMALY   = 359.1020

EPHEMERIS_TYPE = 0
CLASSIFICATION_TYPE = U
NORAD_CAT_ID   = 66030
ELEMENT_SET_NO = 999
REV_AT_EPOCH   = 272
BSTAR          = -.81743E-3
MEAN_MOTION_DOT = -.93072E-3
MEAN_MOTION_DDOT = 0

CCSDS_OMM_VERS = 2.0
CREATION_DATE  = 
ORIGINATOR     = 

OBJECT_NAME    = STARLINK-35326
OBJECT_ID      = 2025-232AC
CENTER_NAME    = EARTH
REF_FRAME      = TEME
TIME_SYSTEM    = UTC
MEAN_ELEMENT_THEORY = SGP/SGP4

EPOCH          = 2025-10-31T16:00:01.998720
MEAN_MOTION    = 15.68326086
ECCENTRICITY   = .0001029
INCLINATION    = 53.1594
RA_OF_ASC_NODE = 346.4985
ARG_OF_PERICENTER = 58.2329
MEAN_ANOMALY   = 2.4301

EPHEMERIS_TYPE = 0
CLASSIFICATION_TYPE = U
NORAD_CAT_ID   = 66031
ELEMENT_SET_NO = 999
REV_AT_EPOCH   = 278
BSTAR          = -.72555E-3
MEAN_MOTION_DOT = -.82772E-3
MEAN_MOTION_DDOT = 0

CCSDS_OMM_VERS = 2.0
CREATION_DATE  = 
ORIGINATOR     = 

OBJECT_NAME    = STARLINK-35311
OBJECT_ID      = 2025-232AD
CENTER_NAME    = EARTH
REF_FRAME      = TEME
TIME_SYSTEM    = UTC
MEAN_ELEMENT_THEORY = SGP/SGP4

EPOCH          = 2025-10-31T16:00:01.998720
MEAN_MOTION    = 15.68330114
ECCENTRICITY   = .0000947
INCLINATION    = 53.1594
RA_OF_ASC_NODE = 346.4939
ARG_OF_PERICENTER = 57.9251
MEAN_ANOMALY   = 4.6571

EPHEMERIS_TYPE = 0
CLASSIFICATION_TYPE = U
NORAD_CAT_ID   = 66032
ELEMENT_SET_NO = 999
REV_AT_EPOCH   = 278
BSTAR          = -.80176E-3
MEAN_MOTION_DOT = -.91327E-3
MEAN_MOTION_DDOT = 0

CCSDS_OMM_VERS = 2.0
CREATION_DATE  = 
ORIGINATOR     = 

OBJECT_NAME    = QIANFAN 18A
OBJECT_ID      = 2025-233A
CENTER_NAME    = EARTH
REF_FRAME      = TEME
TIME_SYSTEM    = UTC
MEAN_ELEMENT_THEORY = SGP/SGP4

EPOCH          = 2025-10-29T23:20:12.238368
MEAN_MOTION    = 14.25907183
ECCENTRICITY   = .00158022
INCLINATION    = 88.9942
RA_OF_ASC_NODE = 67.0695
ARG_OF_PERICENTER = 169.1753
MEAN_ANOMALY   = 190.9784

EPHEMERIS_TYPE = 0
CLASSIFICATION_TYPE = U
NORAD_CAT_ID   = 66033
ELEMENT_SET_NO = 999
REV_AT_EPOCH   = 180
BSTAR          = .3171359E-3
MEAN_MOTION_DOT = .77E-5
MEAN_MOTION_DDOT = 0

